1 53379U 22096K   22257.28011922  .00007432  00000-0  29778-3 0  9991
2 53379  97.4328 158.5061 0003278 358.7049 118.2815 15.25323083  5489
1 53379U 22096K   22257.41280539  .00007440  00000-0  29805-3 0  9998
2 53379  97.4329 158.6375 0003280 358.2419 126.8792 15.25325125  5509
1 53379U 22096K   22257.65686931  .00007532  00000-0  30168-3 0  9996
2 53379  97.4328 158.8801 0003284 357.1801  27.2823 15.25329394  5546
1 53379U 22096K   22257.73337256  .00007555  00000-0  30259-3 0  9994
2 53379  97.4326 158.9563 0003297 356.8485  87.4388 15.25330706  5552
1 53379U 22096K   22257.93829037  .00007596  00000-0  30417-3 0  9990
2 53379  97.4327 159.1596 0003211 356.4757 132.3367 15.25334176  5581
1 53379U 22096K   22258.26443624  .00007712  00000-0  30870-3 0  9994
2 53379  97.4319 159.4836 0003145 354.8079 123.7967 15.25340001  5637
1 53379U 22096K   22258.39420601  .00007714  00000-0  30876-3 0  9996
2 53379  97.4321 159.6123 0003124 354.3827 116.3600 15.25342009  5658
1 53379U 22096K   22258.78317883  .00007824  00000-0  31305-3 0  9996
2 53379  97.4320 159.9987 0003160 353.1729  92.1464 15.25348773  5716
1 53379U 22096K   22258.98699009  .00007853  00000-0  31420-3 0  9991
2 53379  97.4319 160.2014 0003168 352.2842 131.4994 15.25352223  5747
1 53379U 22096K   22259.18933957  .00007900  00000-0  31603-3 0  9993
2 53379  97.4319 160.4023 0003161 351.7096 162.5192 15.25355753  5776
1 53379U 22096K   22259.37840617  .00007869  00000-0  31476-3 0  9996
2 53379  97.4318 160.5894 0003138 351.1179 120.6615 15.25358466  5805
1 53379U 22096K   22259.63660650  .00007913  00000-0  31645-3 0  9990
2 53379  97.4315 160.8457 0003182 350.1595  98.5659 15.25362835  5840
1 53379U 22096K   22259.83048997  .00007920  00000-0  31670-3 0  9992
2 53379  97.4314 161.0382 0003182 349.3591  83.3580 15.25365968  5873
1 53379U 22096K   22260.29791697  .00007861  00000-0  31430-3 0  9994
2 53379  97.4312 161.5024 0003147 347.4020 130.4619 15.25372941  5940
1 53379U 22096K   22260.49242772  .00007795  00000-0  31167-3 0  9994
2 53379  97.4311 161.6956 0003122 347.0686 118.2323 15.25375421  5976
1 53379U 22096K   22260.81466652  .00007796  00000-0  31167-3 0  9996
2 53379  97.4309 162.0160 0003107 345.8570  87.8377 15.25380448  6028
1 53379U 22096K   22260.95588875  .00007774  00000-0  31076-3 0  9998
2 53379  97.4311 162.1560 0003105 345.0794 143.6206 15.25382468  6042
1 53379U 22096K   22261.08490753  .00007742  00000-0  30950-3 0  9995
2 53379  97.4311 162.2841 0003098 344.5488 132.1865 15.25384253  6060
1 53379U 22096K   22261.41472273  .00007596  00000-0  30369-3 0  9990
2 53379  97.4309 162.6118 0003051 342.3477 144.3639 15.25388220  6119
1 53379U 22096K   22261.41472273  .00007596  00000-0  30369-3 0  9990
2 53379  97.4309 162.6118 0003051 342.3477 144.3639 15.25388220  6119
1 53379U 22096K   22261.86289294  .00007447  00000-0  29774-3 0  9991
2 53379  97.4307 163.0573 0002998 340.5523  85.6603 15.25393931  6188
1 53379U 22096K   22261.86289294  .00007447  00000-0  29774-3 0  9991
2 53379  97.4307 163.0573 0002998 340.5523  85.6603 15.25393931  6188
1 53379U 22096K   22262.20643684  .00007297  00000-0  29178-3 0  9998
2 53379  97.4309 163.3985 0002972 339.0930 172.4518 15.25398113  6230
1 53379U 22096K   22262.52090712  .00007132  00000-0  28522-3 0  9991
2 53379  97.4309 163.7109 0002871 337.0689 100.2559 15.25401398  6288
1 53379U 22096K   22262.78485468  .00007038  00000-0  28148-3 0  9994
2 53379  97.4306 163.9733 0002747 334.7827 111.0670 15.25404644  6326
1 53379U 22096K   22263.12201130  .00006980  00000-0  27916-3 0  9992
2 53379  97.4306 164.3080 0002687 333.3505 162.7936 15.25409002  6373
1 53379U 22096K   22263.51372774  .00006850  00000-0  27398-3 0  9998
2 53379  97.4305 164.6969 0002590 331.7726 154.0903 15.25413499  6431
1 53379U 22096K   22263.51372774  .00006850  00000-0  27398-3 0  9998
2 53379  97.4305 164.6969 0002590 331.7726 154.0903 15.25413499  6431
1 53379U 22096K   22263.83196802  .00006801  00000-0  27199-3 0  9994
2 53379  97.4302 165.0129 0002545 330.0700 102.2865 15.25417599  6487
1 53379U 22096K   22263.83196802  .00006801  00000-0  27199-3 0  9994
2 53379  97.4302 165.0129 0002545 330.0700 102.2865 15.25417599  6487
